{"fetched_at":"2026-07-18T06:27:57.732Z","source":"https://celestrak.org/NORAD/elements/gp.php?NAME=BRO&FORMAT=JSON","constellation":"unseenlabs","records":[{"OBJECT_NAME":"BRO-1","OBJECT_ID":"2019-054A","EPOCH":"2026-07-17T22:31:48.444960","CLASSIFICATION_TYPE":"U","MEAN_MOTION":16.31817634,"ECCENTRICITY":0.00110976,"INCLINATION":44.9745,"RA_OF_ASC_NODE":101.56,"ARG_OF_PERICENTER":239.3083,"MEAN_ANOMALY":120.6746,"EPHEMERIS_TYPE":0,"NORAD_CAT_ID":44495,"ELEMENT_SET_NO":999,"REV_AT_EPOCH":38467,"BSTAR":0.00075106629,"MEAN_MOTION_DOT":0.04365344,"MEAN_MOTION_DDOT":0.000010290682},{"OBJECT_NAME":"BRO-5","OBJECT_ID":"2022-002CF","EPOCH":"2026-07-17T22:50:19.268160","CLASSIFICATION_TYPE":"U","MEAN_MOTION":15.48983229,"ECCENTRICITY":0.00056719,"INCLINATION":97.2978,"RA_OF_ASC_NODE":272.9273,"ARG_OF_PERICENTER":193.0658,"MEAN_ANOMALY":167.0447,"EPHEMERIS_TYPE":0,"NORAD_CAT_ID":51061,"ELEMENT_SET_NO":999,"REV_AT_EPOCH":25101,"BSTAR":0.00034732197,"MEAN_MOTION_DOT":0.00018719,"MEAN_MOTION_DDOT":0},{"OBJECT_NAME":"BRO-6","OBJECT_ID":"2022-047AE","EPOCH":"2026-07-17T21:35:14.995968","CLASSIFICATION_TYPE":"U","MEAN_MOTION":15.52710345,"ECCENTRICITY":0.00027864,"INCLINATION":97.3386,"RA_OF_ASC_NODE":290.592,"ARG_OF_PERICENTER":294.0619,"MEAN_ANOMALY":66.0342,"EPHEMERIS_TYPE":0,"NORAD_CAT_ID":52422,"ELEMENT_SET_NO":999,"REV_AT_EPOCH":23591,"BSTAR":0.00043254549,"MEAN_MOTION_DOT":0.00026647,"MEAN_MOTION_DDOT":0},{"OBJECT_NAME":"BRO-8","OBJECT_ID":"2023-001C","EPOCH":"2026-07-17T23:19:07.498848","CLASSIFICATION_TYPE":"U","MEAN_MOTION":15.50864851,"ECCENTRICITY":0.00045583,"INCLINATION":97.3179,"RA_OF_ASC_NODE":264.6371,"ARG_OF_PERICENTER":29.668,"MEAN_ANOMALY":330.4829,"EPHEMERIS_TYPE":0,"NORAD_CAT_ID":55011,"ELEMENT_SET_NO":999,"REV_AT_EPOCH":19697,"BSTAR":0.00036521512,"MEAN_MOTION_DOT":0.0002104,"MEAN_MOTION_DDOT":0},{"OBJECT_NAME":"BRO-11","OBJECT_ID":"2023-174J","EPOCH":"2026-07-17T21:43:44.292000","CLASSIFICATION_TYPE":"U","MEAN_MOTION":15.27605342,"ECCENTRICITY":0.00120082,"INCLINATION":97.3894,"RA_OF_ASC_NODE":275.4708,"ARG_OF_PERICENTER":99.4367,"MEAN_ANOMALY":260.823,"EPHEMERIS_TYPE":0,"NORAD_CAT_ID":58264,"ELEMENT_SET_NO":999,"REV_AT_EPOCH":14944,"BSTAR":0.00009821971,"MEAN_MOTION_DOT":0.00002581,"MEAN_MOTION_DDOT":0},{"OBJECT_NAME":"BRO-13","OBJECT_ID":"2024-043K","EPOCH":"2026-07-17T21:56:16.646784","CLASSIFICATION_TYPE":"U","MEAN_MOTION":14.96656989,"ECCENTRICITY":0.00073768,"INCLINATION":97.8532,"RA_OF_ASC_NODE":330.0367,"ARG_OF_PERICENTER":251.3818,"MEAN_ANOMALY":108.6602,"EPHEMERIS_TYPE":0,"NORAD_CAT_ID":59107,"ELEMENT_SET_NO":999,"REV_AT_EPOCH":12921,"BSTAR":0.000104916,"MEAN_MOTION_DOT":0.00001137,"MEAN_MOTION_DDOT":0},{"OBJECT_NAME":"BRO-12","OBJECT_ID":"2024-043L","EPOCH":"2026-07-17T21:43:28.346880","CLASSIFICATION_TYPE":"U","MEAN_MOTION":14.96897193,"ECCENTRICITY":0.0007004,"INCLINATION":97.8514,"RA_OF_ASC_NODE":330.1973,"ARG_OF_PERICENTER":244.6092,"MEAN_ANOMALY":115.4404,"EPHEMERIS_TYPE":0,"NORAD_CAT_ID":59108,"ELEMENT_SET_NO":999,"REV_AT_EPOCH":12923,"BSTAR":0.00007439695,"MEAN_MOTION_DOT":0.00000794,"MEAN_MOTION_DDOT":0},{"OBJECT_NAME":"BRO-14","OBJECT_ID":"2024-149CM","EPOCH":"2026-07-16T16:30:52.192512","CLASSIFICATION_TYPE":"U","MEAN_MOTION":14.96238845,"ECCENTRICITY":0.00066062,"INCLINATION":97.6864,"RA_OF_ASC_NODE":272.9353,"ARG_OF_PERICENTER":13.7779,"MEAN_ANOMALY":346.3621,"EPHEMERIS_TYPE":0,"NORAD_CAT_ID":60551,"ELEMENT_SET_NO":999,"REV_AT_EPOCH":10440,"BSTAR":0.000093958499,"MEAN_MOTION_DOT":0.00001003,"MEAN_MOTION_DDOT":0},{"OBJECT_NAME":"BRO-15","OBJECT_ID":"2024-149CP","EPOCH":"2026-07-17T22:35:41.935776","CLASSIFICATION_TYPE":"U","MEAN_MOTION":14.96223634,"ECCENTRICITY":0.00074424,"INCLINATION":97.6789,"RA_OF_ASC_NODE":273.7392,"ARG_OF_PERICENTER":355.4776,"MEAN_ANOMALY":4.6377,"EPHEMERIS_TYPE":0,"NORAD_CAT_ID":60553,"ELEMENT_SET_NO":999,"REV_AT_EPOCH":10460,"BSTAR":0.000045768455,"MEAN_MOTION_DOT":0.00000459,"MEAN_MOTION_DDOT":0},{"OBJECT_NAME":"BRO-16","OBJECT_ID":"2025-009AX","EPOCH":"2026-07-17T11:28:18.685056","CLASSIFICATION_TYPE":"U","MEAN_MOTION":15.24137419,"ECCENTRICITY":0.000237,"INCLINATION":97.4053,"RA_OF_ASC_NODE":278.5918,"ARG_OF_PERICENTER":149.8596,"MEAN_ANOMALY":210.2778,"EPHEMERIS_TYPE":0,"NORAD_CAT_ID":62654,"ELEMENT_SET_NO":999,"REV_AT_EPOCH":8341,"BSTAR":0.000081285,"MEAN_MOTION_DOT":0.00001906,"MEAN_MOTION_DDOT":0},{"OBJECT_NAME":"BRO-18","OBJECT_ID":"2025-135Y","EPOCH":"2026-07-17T22:51:40.180896","CLASSIFICATION_TYPE":"U","MEAN_MOTION":15.22185316,"ECCENTRICITY":0.00025721,"INCLINATION":97.4658,"RA_OF_ASC_NODE":313.7503,"ARG_OF_PERICENTER":112.285,"MEAN_ANOMALY":247.866,"EPHEMERIS_TYPE":0,"NORAD_CAT_ID":64550,"ELEMENT_SET_NO":999,"REV_AT_EPOCH":5955,"BSTAR":0.0001004929,"MEAN_MOTION_DOT":0.00002236,"MEAN_MOTION_DDOT":0},{"OBJECT_NAME":"BRO-17","OBJECT_ID":"2025-276G","EPOCH":"2026-07-16T17:05:23.487360","CLASSIFICATION_TYPE":"U","MEAN_MOTION":15.18164165,"ECCENTRICITY":0.00051495,"INCLINATION":97.4181,"RA_OF_ASC_NODE":270.2505,"ARG_OF_PERICENTER":252.4974,"MEAN_ANOMALY":107.5697,"EPHEMERIS_TYPE":0,"NORAD_CAT_ID":66672,"ELEMENT_SET_NO":999,"REV_AT_EPOCH":3487,"BSTAR":0.000089385876,"MEAN_MOTION_DOT":0.00001759,"MEAN_MOTION_DDOT":0},{"OBJECT_NAME":"BRO-20","OBJECT_ID":"2025-276J","EPOCH":"2026-07-17T03:34:55.557696","CLASSIFICATION_TYPE":"U","MEAN_MOTION":15.18332077,"ECCENTRICITY":0.00048185,"INCLINATION":97.4161,"RA_OF_ASC_NODE":270.667,"ARG_OF_PERICENTER":253.881,"MEAN_ANOMALY":106.1894,"EPHEMERIS_TYPE":0,"NORAD_CAT_ID":66674,"ELEMENT_SET_NO":999,"REV_AT_EPOCH":3494,"BSTAR":0.000078481687,"MEAN_MOTION_DOT":0.00001544,"MEAN_MOTION_DDOT":0},{"OBJECT_NAME":"BRO-19","OBJECT_ID":"2026-067G","EPOCH":"2026-07-17T21:08:00.590496","CLASSIFICATION_TYPE":"U","MEAN_MOTION":15.18999315,"ECCENTRICITY":0.00024844,"INCLINATION":97.4494,"RA_OF_ASC_NODE":156.9024,"ARG_OF_PERICENTER":103.631,"MEAN_ANOMALY":256.5201,"EPHEMERIS_TYPE":0,"NORAD_CAT_ID":68422,"ELEMENT_SET_NO":999,"REV_AT_EPOCH":1660,"BSTAR":0.000098487194,"MEAN_MOTION_DOT":0.00001993,"MEAN_MOTION_DDOT":0},{"OBJECT_NAME":"BRO-21","OBJECT_ID":"2026-100AD","EPOCH":"2026-07-17T15:21:32.029920","CLASSIFICATION_TYPE":"U","MEAN_MOTION":15.2164385,"ECCENTRICITY":0.00063103,"INCLINATION":97.4001,"RA_OF_ASC_NODE":96.0344,"ARG_OF_PERICENTER":319.4163,"MEAN_ANOMALY":40.6602,"EPHEMERIS_TYPE":0,"NORAD_CAT_ID":69007,"ELEMENT_SET_NO":999,"REV_AT_EPOCH":1143,"BSTAR":0.00015010671,"MEAN_MOTION_DOT":0.00003323,"MEAN_MOTION_DDOT":0},{"OBJECT_NAME":"BRO-22","OBJECT_ID":"2026-132C","EPOCH":"2026-07-17T13:49:36.757632","CLASSIFICATION_TYPE":"U","MEAN_MOTION":14.99813835,"ECCENTRICITY":0.0016826,"INCLINATION":97.6826,"RA_OF_ASC_NODE":261.8659,"ARG_OF_PERICENTER":172.1338,"MEAN_ANOMALY":188.0152,"EPHEMERIS_TYPE":0,"NORAD_CAT_ID":69504,"ELEMENT_SET_NO":999,"REV_AT_EPOCH":533,"BSTAR":0.00011524,"MEAN_MOTION_DOT":0.0000137,"MEAN_MOTION_DDOT":0}]}
