BRO-1                   
1 44495U 19054A   26198.93875515  .04365344  10291-4  75107-3 0  9993
2 44495  44.9745 101.5600 0011097 239.3083 120.6746 16.31817634384674
BRO-5                   
1 51061U 22002CF  26198.95161190  .00018719  00000+0  34732-3 0  9994
2 51061  97.2978 272.9273 0005671 193.0658 167.0447 15.48983229251019
BRO-6                   
1 52422U 22047AE  26198.89947912  .00026647  00000+0  43255-3 0  9991
2 52422  97.3386 290.5920 0002786 294.0619  66.0342 15.52710345235918
BRO-8                   
1 55011U 23001C   26198.97161457  .00021040  00000+0  36522-3 0  9991
2 55011  97.3179 264.6371 0004558  29.6680 330.4829 15.50864851196976
BRO-11                  
1 58264U 23174J   26198.90537375  .00002581  00000+0  98220-4 0  9997
2 58264  97.3894 275.4708 0012008  99.4367 260.8230 15.27605342149447
BRO-13                  
1 59107U 24043K   26198.91408156  .00001137  00000+0  10492-3 0  9995
2 59107  97.8532 330.0367 0007376 251.3818 108.6602 14.96656989129212
BRO-12                  
1 59108U 24043L   26198.90518920  .00000794  00000+0  74397-4 0  9999
2 59108  97.8514 330.1973 0007004 244.6092 115.4404 14.96897193129236
BRO-14                  
1 60551U 24149CM  26197.68810408  .00001003  00000+0  93958-4 0  9998
2 60551  97.6864 272.9353 0006606  13.7779 346.3621 14.96238845104406
BRO-15                  
1 60553U 24149CP  26198.94145759  .00000459  00000+0  45768-4 0  9990
2 60553  97.6789 273.7392 0007442 355.4776   4.6377 14.96223634104602
BRO-16                  
1 62654U 25009AX  26198.47799404  .00001906  00000+0  81285-4 0  9992
2 62654  97.4053 278.5918 0002370 149.8596 210.2778 15.24137419 83417
BRO-18                  
1 64550U 25135Y   26198.95254839  .00002236  00000+0  10049-3 0  9996
2 64550  97.4658 313.7503 0002572 112.2850 247.8660 15.22185316 59559
BRO-17                  
1 66672U 25276G   26197.71207740  .00001759  00000+0  89386-4 0  9991
2 66672  97.4181 270.2505 0005149 252.4974 107.5697 15.18164165 34877
BRO-20                  
1 66674U 25276J   26198.14925414  .00001544  00000+0  78482-4 0  9993
2 66674  97.4161 270.6670 0004818 253.8810 106.1894 15.18332077 34941
BRO-19                  
1 68422U 26067G   26198.88056239  .00001993  00000+0  98487-4 0  9991
2 68422  97.4494 156.9024 0002484 103.6310 256.5201 15.18999315 16605
BRO-21                  
1 69007U 26100AD  26198.63995405  .00003323  00000+0  15011-3 0  9999
2 69007  97.4001  96.0344 0006310 319.4163  40.6602 15.21643850 11430
BRO-22                  
1 69504U 26132C   26198.57611988  .00001370  00000+0  11524-3 0  9995
2 69504  97.6826 261.8659 0016826 172.1338 188.0152 14.99813835  5336
